NOAA 17                 
1 27453U 02032A   26073.58673687  .00000260  00000+0  12766-3 0  9998
2 27453  98.8549  38.2684 0010549 266.1099  93.8874 14.26192649233505
NOAA 18                 
1 28654U 05018A   26073.63762748  .00000039  00000+0  43696-4 0  9993
2 28654  98.8149 154.6755 0015158  62.3459 297.9250 14.13711810 72952
NOAA 19                 
1 33591U 09005A   26073.61968980  .00000039  00000+0  44511-4 0  9990
2 33591  98.9598 144.3989 0012748 299.7231  60.2672 14.13457726881127
SUOMI NPP               
1 37849U 11061A   26073.60668374  .00000110  00000+0  73209-4 0  9994
2 37849  98.7875  15.1705 0000686 197.7390 162.3762 14.19545199745025
NOAA 20 (JPSS-1)        
1 43013U 17073A   26073.55089999  .00000084  00000+0  60598-4 0  9994
2 43013  98.7696  13.8898 0001418 131.1845 228.9454 14.19537491431042
NOAA 21 (JPSS-2)        
1 54234U 22150A   26073.58555316  .00000096  00000+0  66585-4 0  9992
2 54234  98.7558  13.7954 0002750  97.9050 262.2438 14.19553682173120
