[{"OBJECT_NAME":"NOAA 17","OBJECT_ID":"2002-032A","EPOCH":"2026-03-14T14:04:54.065568","MEAN_MOTION":14.26192649,"ECCENTRICITY":0.00105495,"INCLINATION":98.8549,"RA_OF_ASC_NODE":38.2684,"ARG_OF_PERICENTER":266.1099,"MEAN_ANOMALY":93.8874,"EPHEMERIS_TYPE":0,"CLASSIFICATION_TYPE":"U","NORAD_CAT_ID":27453,"ELEMENT_SET_NO":999,"REV_AT_EPOCH":23350,"BSTAR":0.00012766429,"MEAN_MOTION_DOT":2.6e-6,"MEAN_MOTION_DDOT":0},{"OBJECT_NAME":"NOAA 18","OBJECT_ID":"2005-018A","EPOCH":"2026-03-14T15:18:11.014272","MEAN_MOTION":14.1371181,"ECCENTRICITY":0.00151588,"INCLINATION":98.8149,"RA_OF_ASC_NODE":154.6755,"ARG_OF_PERICENTER":62.3459,"MEAN_ANOMALY":297.925,"EPHEMERIS_TYPE":0,"CLASSIFICATION_TYPE":"U","NORAD_CAT_ID":28654,"ELEMENT_SET_NO":999,"REV_AT_EPOCH":7295,"BSTAR":4.3696322e-5,"MEAN_MOTION_DOT":3.9e-7,"MEAN_MOTION_DDOT":0},{"OBJECT_NAME":"NOAA 19","OBJECT_ID":"2009-005A","EPOCH":"2026-03-14T14:52:21.198720","MEAN_MOTION":14.13457726,"ECCENTRICITY":0.00127487,"INCLINATION":98.9598,"RA_OF_ASC_NODE":144.3989,"ARG_OF_PERICENTER":299.7231,"MEAN_ANOMALY":60.2672,"EPHEMERIS_TYPE":0,"CLASSIFICATION_TYPE":"U","NORAD_CAT_ID":33591,"ELEMENT_SET_NO":999,"REV_AT_EPOCH":88112,"BSTAR":4.4510541e-5,"MEAN_MOTION_DOT":3.9e-7,"MEAN_MOTION_DDOT":0},{"OBJECT_NAME":"SUOMI NPP","OBJECT_ID":"2011-061A","EPOCH":"2026-03-14T14:33:37.475136","MEAN_MOTION":14.19545199,"ECCENTRICITY":6.866e-5,"INCLINATION":98.7875,"RA_OF_ASC_NODE":15.1705,"ARG_OF_PERICENTER":197.739,"MEAN_ANOMALY":162.3762,"EPHEMERIS_TYPE":0,"CLASSIFICATION_TYPE":"U","NORAD_CAT_ID":37849,"ELEMENT_SET_NO":999,"REV_AT_EPOCH":74502,"BSTAR":7.3208624e-5,"MEAN_MOTION_DOT":1.1e-6,"MEAN_MOTION_DDOT":0},{"OBJECT_NAME":"NOAA 20 (JPSS-1)","OBJECT_ID":"2017-073A","EPOCH":"2026-03-14T13:13:17.759136","MEAN_MOTION":14.19537491,"ECCENTRICITY":0.00014186,"INCLINATION":98.7696,"RA_OF_ASC_NODE":13.8898,"ARG_OF_PERICENTER":131.1845,"MEAN_ANOMALY":228.9454,"EPHEMERIS_TYPE":0,"CLASSIFICATION_TYPE":"U","NORAD_CAT_ID":43013,"ELEMENT_SET_NO":999,"REV_AT_EPOCH":43104,"BSTAR":6.0597649e-5,"MEAN_MOTION_DOT":8.4e-7,"MEAN_MOTION_DDOT":0},{"OBJECT_NAME":"NOAA 21 (JPSS-2)","OBJECT_ID":"2022-150A","EPOCH":"2026-03-14T14:03:11.793024","MEAN_MOTION":14.19553682,"ECCENTRICITY":0.00027507,"INCLINATION":98.7558,"RA_OF_ASC_NODE":13.7954,"ARG_OF_PERICENTER":97.905,"MEAN_ANOMALY":262.2438,"EPHEMERIS_TYPE":0,"CLASSIFICATION_TYPE":"U","NORAD_CAT_ID":54234,"ELEMENT_SET_NO":999,"REV_AT_EPOCH":17312,"BSTAR":6.658532e-5,"MEAN_MOTION_DOT":9.6e-7,"MEAN_MOTION_DDOT":0}]
